STARLINK-31519          
1 59546U 24074N   26068.13468203 -.00010659  00000+0 -37859-3 0  9992
2 59546  43.0041 346.3010 0001515 297.9835  62.0863 15.27560711105933
HYPERFIELD-1A           
1 60562U 24149CY  26068.76488211  .00008569  00000+0  30052-3 0  9998
2 60562  97.3842 149.5066 0003865 313.7844  46.3076 15.29681349 86836
