[{"OBJECT_NAME":"STARLINK-31519","OBJECT_ID":"2024-074N","EPOCH":"2026-03-09T03:13:56.527392","MEAN_MOTION":15.27560711,"ECCENTRICITY":0.00015156,"INCLINATION":43.0041,"RA_OF_ASC_NODE":346.301,"ARG_OF_PERICENTER":297.9835,"MEAN_ANOMALY":62.0863,"EPHEMERIS_TYPE":0,"CLASSIFICATION_TYPE":"U","NORAD_CAT_ID":59546,"ELEMENT_SET_NO":999,"REV_AT_EPOCH":10593,"BSTAR":-0.00037858741,"MEAN_MOTION_DOT":-0.00010659,"MEAN_MOTION_DDOT":0},{"OBJECT_NAME":"HYPERFIELD-1A","OBJECT_ID":"2024-149CY","EPOCH":"2026-03-09T18:21:25.814304","MEAN_MOTION":15.29681349,"ECCENTRICITY":0.00038648,"INCLINATION":97.3842,"RA_OF_ASC_NODE":149.5066,"ARG_OF_PERICENTER":313.7844,"MEAN_ANOMALY":46.3076,"EPHEMERIS_TYPE":0,"CLASSIFICATION_TYPE":"U","NORAD_CAT_ID":60562,"ELEMENT_SET_NO":999,"REV_AT_EPOCH":8683,"BSTAR":0.00030052114,"MEAN_MOTION_DOT":8.569e-5,"MEAN_MOTION_DDOT":0}]
